NORAD_CAT_ID,OBJECT_NAME,OBJECT_TYPE,EPOCH,MEAN_MOTION,ECCENTRICITY,INCLINATION,RA_OF_ASC_NODE,ARG_OF_PERICENTER,MEAN_ANOMALY,BSTAR,MEAN_MOTION_DOT,MEAN_MOTION_DDOT,TLE_LINE0,TLE_LINE1,TLE_LINE2,SEMIMAJOR_AXIS,PERIOD,APOGEE,PERIGEE,DECAYED
53778.0,STARLINK-4709,PAYLOAD,2023-11-04 21:25:49,15.08855509,0.0001573,53.2163,160.6707,88.1437,271.9736,0.00040244,6.125e-05,0.0,0 STARLINK-4709,1 53778U 22111F   23308.89293372  .00006125  00000-0  40244-3 0  9997,2 53778  53.2163 160.6707 0001573  88.1437 271.9736 15.08855509 63624,6917.833,95.437,540.786,538.61,0.0
53778.0,STARLINK-4709,PAYLOAD,2023-11-05 06:58:07,15.08855614,0.0001397,53.2155,158.8835,81.6727,278.4423,0.00027503,4.094e-05,0.0,0 STARLINK-4709,1 53778U 22111F   23309.29036939  .00004094  00000-0  27503-3 0  9992,2 53778  53.2155 158.8835 0001397  81.6727 278.4423 15.08855614 64498,6917.833,95.437,540.664,538.731,0.0
53778.0,STARLINK-4709,PAYLOAD,2023-11-05 19:41:12,15.08857799,0.0001561,53.2157,156.5046,85.5981,274.5189,0.00019946,2.889e-05,0.0,0 STARLINK-4709,1 53778U 22111F   23309.82028383  .00002889  00000-0  19946-3 0  9997,2 53778  53.2157 156.5046 0001561  85.5981 274.5189 15.08857799 63768,6917.826,95.436,540.771,538.611,0.0
53778.0,STARLINK-4709,PAYLOAD,2023-11-05 21:16:35,15.08871374,0.0001594,53.2168,156.2072,84.4454,275.672,0.00057168,8.83e-05,0.0,0 STARLINK-4709,1 53778U 22111F   23309.88652033  .00008830  00000-0  57168-3 0  9998,2 53778  53.2168 156.2072 0001594  84.4454 275.6720 15.08871374 64584,6917.784,95.436,540.752,538.547,0.0
53778.0,STARLINK-4709,PAYLOAD,2023-11-06 00:27:21,15.08885554,0.0001644,53.2158,155.6129,90.4233,269.6948,0.0011263,0.00017705,0.0,0 STARLINK-4709,1 53778U 22111F   23310.01899639  .00017705  00000-0  11263-2 0  9996,2 53778  53.2158 155.6129 0001644  90.4233 269.6948 15.08885554 63799,6917.741,95.435,540.743,538.469,0.0
53778.0,STARLINK-4709,PAYLOAD,2023-11-06 06:48:53,15.08867643,0.0002049,53.2154,154.4204,78.5169,281.6053,0.00064658,0.00010025,0.0,0 STARLINK-4709,1 53778U 22111F   23310.28395807  .00010025  00000-0  64658-3 0  9998,2 53778  53.2154 154.4204 0002049  78.5169 281.6053 15.08867643 63836,6917.796,95.436,541.078,538.243,0.0
53778.0,STARLINK-4709,PAYLOAD,2023-11-06 19:31:58,15.08845353,0.0001331,53.2148,152.0442,80.2341,279.8802,-0.00019653,-3.415e-05,0.0,0 STARLINK-4709,1 53778U 22111F   23310.81387525 -.00003415  00000-0 -19653-3 0  9997,2 53778  53.2148 152.0442 0001331  80.2341 279.8802 15.08845353 63916,6917.864,95.437,540.65,538.808,0.0
53778.0,STARLINK-4709,PAYLOAD,2023-11-06 21:07:22,15.0884562,0.0001614,53.2163,151.7527,83.733,276.3846,-0.00016003,-2.834e-05,0.0,0 STARLINK-4709,1 53778U 22111F   23310.88011733 -.00002834  00000-0 -16003-3 0  9999,2 53778  53.2163 151.7527 0001614  83.7330 276.3846 15.08845620 64731,6917.863,95.437,540.845,538.612,0.0
53778.0,STARLINK-4709,PAYLOAD,2023-11-07 06:39:41,15.08835445,0.000136,53.2159,149.9636,91.0305,269.0843,-0.00022193,-3.818e-05,0.0,0 STARLINK-4709,1 53778U 22111F   23311.27756082 -.00003818  00000-0 -22193-3 0  9996,2 53778  53.2159 149.9636 0001360  91.0305 269.0843 15.08835445 63984,6917.894,95.438,540.7,538.818,0.0
53778.0,STARLINK-4709,PAYLOAD,2023-11-07 13:01:14,15.08812381,0.000135,53.2162,148.7735,96.5063,263.6083,-0.00064306,-0.000105,0.0,0 STARLINK-4709,1 53778U 22111F   23311.54253029 -.00010500  00000-0 -64306-3 0  9997,2 53778  53.2162 148.7735 0001350  96.5063 263.6083 15.08812381 64830,6917.965,95.439,540.764,538.896,0.0
53778.0,STARLINK-4709,PAYLOAD,2023-11-07 19:22:47,15.08817673,0.0001617,53.2161,147.5855,94.285,265.8327,-0.00043211,-7.154e-05,0.0,0 STARLINK-4709,1 53778U 22111F   23311.80749497 -.00007154  00000-0 -43211-3 0  9998,2 53778  53.2161 147.5855 0001617  94.2850 265.8327 15.08817673 64063,6917.949,95.439,540.932,538.695,0.0
53778.0,STARLINK-4709,PAYLOAD,2023-11-08 12:52:02,15.08821569,0.0001498,53.216,144.3148,89.17,270.9464,5.1197e-05,5.27e-06,0.0,0 STARLINK-4709,1 53778U 22111F   23312.53614440  .00000527  00000-0  51197-4 0  9996,2 53778  53.2160 144.3148 0001498  89.1700 270.9464 15.08821569 64985,6917.937,95.439,540.838,538.765,0.0
53778.0,STARLINK-4709,PAYLOAD,2023-11-08 19:13:35,15.08822985,0.0001151,53.2163,143.1264,87.3257,272.7867,0.00017796,2.544e-05,0.0,0 STARLINK-4709,1 53778U 22111F   23312.80110781  .00002544  00000-0  17796-3 0  9992,2 53778  53.2163 143.1264 0001151  87.3257 272.7867 15.08822985 64213,6917.932,95.439,540.594,539.001,0.0
53778.0,STARLINK-4709,PAYLOAD,2023-11-09 12:42:50,15.08829517,9.78e-05,53.2161,139.8562,86.3321,273.7783,0.00061778,9.555e-05,0.0,0 STARLINK-4709,1 53778U 22111F   23313.52975430  .00009555  00000-0  61778-3 0  9990,2 53778  53.2161 139.8562 0000978  86.3321 273.7783 15.08829517 65139,6917.912,95.438,540.454,539.101,0.0
53778.0,STARLINK-4709,PAYLOAD,2023-11-09 19:04:22,15.08842935,0.0001382,53.2156,138.6641,90.8687,269.2463,0.00052215,8.032e-05,0.0,0 STARLINK-4709,1 53778U 22111F   23313.79471051  .00008032  00000-0  52215-3 0  9994,2 53778  53.2156 138.6641 0001382  90.8687 269.2463 15.08842935 64361,6917.871,95.437,540.692,538.78,0.0
53778.0,STARLINK-4709,PAYLOAD,2023-11-10 18:55:08,15.08865428,0.0001373,53.2156,134.2032,89.531,270.584,0.00056142,8.664e-05,0.0,0 STARLINK-4709,1 53778U 22111F   23314.78829803  .00008664  00000-0  56142-3 0  9990,2 53778  53.2156 134.2032 0001373  89.5310 270.5840 15.08865428 65328,6917.803,95.436,540.617,538.718,0.0
53778.0,STARLINK-4709,PAYLOAD,2023-11-11 12:24:23,15.08854704,0.0001378,53.2157,130.9329,86.358,273.757,0.00012826,1.755e-05,0.0,0 STARLINK-4709,1 53778U 22111F   23315.51693460  .00001755  00000-0  12826-3 0  9995,2 53778  53.2157 130.9329 0001378  86.3580 273.7570 15.08854704 64622,6917.835,95.437,540.654,538.747,0.0
53778.0,STARLINK-4709,PAYLOAD,2023-11-11 18:45:55,15.08850812,0.0001346,53.2153,129.7404,85.4617,274.6529,4.2818e-05,3.94e-06,0.0,0 STARLINK-4709,1 53778U 22111F   23315.78189417  .00000394  00000-0  42818-4 0  9999,2 53778  53.2153 129.7404 0001346  85.4617 274.6529 15.08850812 65478,6917.847,95.437,540.643,538.781,0.0
53778.0,STARLINK-4709,PAYLOAD,2023-11-12 12:15:10,15.08839028,0.0001562,53.2165,126.4721,98.2296,261.8873,-8.1328e-06,-4.17e-06,0.0,0 STARLINK-4709,1 53778U 22111F   23316.51053721 -.00000417  00000-0 -81328-5 0  9997,2 53778  53.2165 126.4721 0001562  98.2296 261.8873 15.08839028 64770,6917.883,95.438,540.829,538.668,0.0
53778.0,STARLINK-4709,PAYLOAD,2023-11-12 18:36:43,15.0884629,0.0001407,53.2179,125.2831,90.9068,269.2086,-4.0773e-05,-9.37e-06,0.0,0 STARLINK-4709,1 53778U 22111F   23316.77549784 -.00000937  00000-0 -40773-4 0  9999,2 53778  53.2179 125.2831 0001407  90.9068 269.2086 15.08846290 65620,6917.861,95.437,540.7,538.753,0.0
53778.0,STARLINK-4709,PAYLOAD,2023-11-13 20:02:52,15.08843325,0.0001457,53.2185,120.5256,100.2211,259.8946,0.00010343,1.359e-05,0.0,0 STARLINK-4709,1 53778U 22111F   23317.83533485  .00001359  00000-0  10343-3 0  9994,2 53778  53.2185 120.5256 0001457 100.2211 259.8946 15.08843325 65789,6917.87,95.437,540.743,538.727,0.0
53778.0,STARLINK-4709,PAYLOAD,2023-11-14 19:53:40,15.0883852,0.0001256,53.2174,116.0632,91.0946,269.019,6.6748e-05,7.75e-06,0.0,0 STARLINK-4709,1 53778U 22111F   23318.82893944  .00000775  00000-0  66748-4 0  9995,2 53778  53.2174 116.0632 0001256  91.0946 269.0190 15.08838520 65127,6917.885,95.438,540.619,538.881,0.0
53778.0,STARLINK-4709,PAYLOAD,2023-11-15 10:12:08,15.08843642,0.0001392,53.2178,113.3879,86.315,273.8001,2.3664e-05,8.9e-07,0.0,0 STARLINK-4709,1 53778U 22111F   23319.42509483  .00000089  00000-0  23664-4 0  9992,2 53778  53.2178 113.3879 0001392  86.3150 273.8001 15.08843642 66024,6917.869,95.437,540.697,538.771,0.0
53778.0,STARLINK-4709,PAYLOAD,2023-11-15 16:33:40,15.08846434,0.0001391,53.2177,112.1987,86.5618,273.5533,4.94e-05,4.98e-06,0.0,0 STARLINK-4709,1 53778U 22111F   23319.69005192  .00000498  00000-0  49400-4 0  9999,2 53778  53.2177 112.1987 0001391  86.5618 273.5533 15.08846434 65253,6917.861,95.437,540.688,538.763,0.0
53778.0,STARLINK-4709,PAYLOAD,2023-11-16 10:02:55,15.08842645,0.0001401,53.2185,108.9282,96.3685,263.7466,2.6842e-05,1.39e-06,0.0,0 STARLINK-4709,1 53778U 22111F   23320.41869481  .00000139  00000-0  26842-4 0  9997,2 53778  53.2185 108.9282 0001401  96.3685 263.7466 15.08842645 65366,6917.872,95.437,540.706,538.768,0.0
53778.0,STARLINK-4709,PAYLOAD,2023-11-16 16:24:28,15.08839002,0.0001112,53.2167,107.7364,98.0611,262.0508,5.9072e-05,6.52e-06,0.0,0 STARLINK-4709,1 53778U 22111F   23320.68365846  .00000652  00000-0  59072-4 0  9993,2 53778  53.2167 107.7364 0001112  98.0611 262.0508 15.08839002 66218,6917.883,95.438,540.518,538.979,0.0
53778.0,STARLINK-4709,PAYLOAD,2023-11-17 09:53:42,15.08837534,0.0001563,53.2166,104.466,98.7346,261.3823,2.7892e-05,1.56e-06,0.0,0 STARLINK-4709,1 53778U 22111F   23321.41230133  .00000156  00000-0  27892-4 0  9999,2 53778  53.2166 104.4660 0001563  98.7346 261.3823 15.08837534 65514,6917.888,95.438,540.834,538.672,0.0
53778.0,STARLINK-4709,PAYLOAD,2023-11-17 13:04:29,15.08837431,0.0001525,53.2173,103.8716,98.5773,261.5392,2.3749e-05,9e-07,0.0,0 STARLINK-4709,1 53778U 22111F   23321.54478151  .00000090  00000-0  23749-4 0  9991,2 53778  53.2173 103.8716 0001525  98.5773 261.5392 15.08837431 66348,6917.888,95.438,540.808,538.698,0.0
53778.0,STARLINK-4709,PAYLOAD,2023-11-18 12:55:16,15.08839023,0.0001459,53.2185,99.4121,96.466,263.6499,7.2057e-05,8.59e-06,0.0,0 STARLINK-4709,1 53778U 22111F   23322.53838103  .00000859  00000-0  72057-4 0  9997,2 53778  53.2185  99.4121 0001459  96.4660 263.6499 15.08839023 65685,6917.883,95.438,540.758,538.739,0.0
53778.0,STARLINK-4709,PAYLOAD,2023-11-18 16:06:02,15.08840733,0.0001441,53.2187,98.8178,94.4054,265.7103,8.2598e-05,1.027e-05,0.0,0 STARLINK-4709,1 53778U 22111F   23322.67085974  .00001027  00000-0  82598-4 0  9991,2 53778  53.2187  98.8178 0001441  94.4054 265.7103 15.08840733 66516,6917.878,95.438,540.74,538.746,0.0
